YAOGAN-43 01D           
1 60461U 24148D   26068.43560480  .00010676  00000+0  37766-3 0  9999
2 60461  35.0010  61.7102 0002556 326.2473  33.8080 15.28369377 87008
STARLINK-33669          
1 63283U 25053U   26068.52942742  .00033117  00000+0  12078-2 0  9998
2 63283  42.9995 242.2677 0000695 213.3292 146.7516 15.27572833 56176
